NORAD_CAT_ID,OBJECT_NAME,OBJECT_TYPE,EPOCH,MEAN_MOTION,ECCENTRICITY,INCLINATION,RA_OF_ASC_NODE,ARG_OF_PERICENTER,MEAN_ANOMALY,BSTAR,MEAN_MOTION_DOT,MEAN_MOTION_DDOT,TLE_LINE0,TLE_LINE1,TLE_LINE2,SEMIMAJOR_AXIS,PERIOD,APOGEE,PERIGEE,DECAYED
56476.0,STARLINK-5545,PAYLOAD,2024-07-10 09:58:03,14.98329207,0.0003423,69.9985,215.6819,268.8443,91.2323,1.3641e-05,7e-07,0.0,0 STARLINK-5545,1 56476U 23064AE  24192.41532263  .00000070  00000-0  13641-4 0  9993,2 56476  69.9985 215.6819 0003423 268.8443  91.2323 14.98329207 64774,6950.195,96.107,574.439,569.681,0.0
56476.0,STARLINK-5545,PAYLOAD,2024-07-11 05:11:40,14.98333393,0.0003486,69.9984,213.6619,268.9945,91.0814,4.008e-05,3.85e-06,0.0,0 STARLINK-5545,1 56476U 23064AE  24193.21643860  .00000385  00000-0  40080-4 0  9994,2 56476  69.9984 213.6619 0003486 268.9945  91.0814 14.98333393 65254,6950.182,96.107,574.47,569.625,0.0
56476.0,STARLINK-5545,PAYLOAD,2024-07-11 11:36:12,14.98334157,0.0003458,69.9985,212.9888,268.8116,91.2647,4.9263e-05,4.95e-06,0.0,0 STARLINK-5545,1 56476U 23064AE  24193.48347737  .00000495  00000-0  49263-4 0  9991,2 56476  69.9985 212.9888 0003458 268.8116  91.2647 14.98334157 64932,6950.18,96.107,574.448,569.642,0.0
56476.0,STARLINK-5545,PAYLOAD,2024-07-11 18:00:44,14.98332497,0.0003436,69.9986,212.3154,268.9803,91.0963,3.8058e-05,3.61e-06,0.0,0 STARLINK-5545,1 56476U 23064AE  24193.75051822  .00000361  00000-0  38058-4 0  9990,2 56476  69.9986 212.3154 0003436 268.9803  91.0963 14.98332497 64971,6950.185,96.107,574.438,569.662,0.0
56476.0,STARLINK-5545,PAYLOAD,2024-07-12 05:13:41,14.98331026,0.000343,69.9987,211.1372,268.9443,91.1324,5.7433e-05,5.92e-06,0.0,0 STARLINK-5545,1 56476U 23064AE  24194.21783839  .00000592  00000-0  57433-4 0  9996,2 56476  69.9987 211.1372 0003430 268.9443  91.1324 14.98331026 65403,6950.19,96.107,574.439,569.671,0.0
56476.0,STARLINK-5545,PAYLOAD,2024-07-12 11:38:13,14.98331103,0.000343,69.9987,210.4639,269.0191,91.0575,5.4704e-05,5.6e-06,0.0,0 STARLINK-5545,1 56476U 23064AE  24194.48487848  .00000560  00000-0  54704-4 0  9999,2 56476  69.9987 210.4639 0003430 269.0191  91.0575 14.98331103 65080,6950.189,96.107,574.438,569.671,0.0
56476.0,STARLINK-5545,PAYLOAD,2024-07-12 18:02:45,14.98331921,0.0003427,69.9987,209.7906,268.9289,91.1478,3.4263e-05,3.16e-06,0.0,0 STARLINK-5545,1 56476U 23064AE  24194.75191815  .00000316  00000-0  34263-4 0  9992,2 56476  69.9987 209.7906 0003427 268.9289  91.1478 14.98331921 65126,6950.187,96.107,574.434,569.67,0.0
56476.0,STARLINK-5545,PAYLOAD,2024-07-13 05:15:42,14.98332678,0.000341,69.9987,208.6123,269.4818,90.595,1.4243e-05,7.7e-07,0.0,0 STARLINK-5545,1 56476U 23064AE  24195.21923752  .00000077  00000-0  14243-4 0  9997,2 56476  69.9987 208.6123 0003410 269.4818  90.5950 14.98332678 65556,6950.185,96.107,574.42,569.68,0.0
56476.0,STARLINK-5545,PAYLOAD,2024-07-13 10:04:06,14.98332358,0.0003429,69.9986,208.1074,268.0027,92.0739,9.436e-06,2e-07,0.0,0 STARLINK-5545,1 56476U 23064AE  24195.41951738  .00000020  00000-0  94360-5 0  9991,2 56476  69.9986 208.1074 0003429 268.0027  92.0739 14.98332358 65223,6950.186,96.107,574.434,569.667,0.0
56476.0,STARLINK-5545,PAYLOAD,2024-07-13 18:04:46,14.98332076,0.0003433,69.9986,207.2658,268.0568,92.0198,1.9267e-05,1.37e-06,0.0,0 STARLINK-5545,1 56476U 23064AE  24195.75331695  .00000137  00000-0  19267-4 0  9993,2 56476  69.9986 207.2658 0003433 268.0568  92.0198 14.98332076 65277,6950.186,96.107,574.437,569.665,0.0
56476.0,STARLINK-5545,PAYLOAD,2024-07-14 05:17:43,14.98330537,0.0003437,69.9985,206.0875,267.873,92.2035,1.8204e-05,1.24e-06,0.0,0 STARLINK-5545,1 56476U 23064AE  24196.22063790  .00000124  00000-0  18204-4 0  9990,2 56476  69.9985 206.0875 0003437 267.8730  92.2035 14.98330537 65706,6950.191,96.107,574.445,569.667,0.0
56476.0,STARLINK-5545,PAYLOAD,2024-07-14 10:06:07,14.98331472,0.0003437,69.9984,205.5825,267.9983,92.0782,2.7105e-05,2.3e-06,0.0,0 STARLINK-5545,1 56476U 23064AE  24196.42091701  .00000230  00000-0  27105-4 0  9993,2 56476  69.9984 205.5825 0003437 267.9983  92.0782 14.98331472 65374,6950.188,96.107,574.442,569.665,0.0
56476.0,STARLINK-5545,PAYLOAD,2024-07-14 18:06:47,14.98330882,0.0003479,69.9983,204.7408,268.7978,91.2783,2.5087e-05,2.06e-06,0.0,0 STARLINK-5545,1 56476U 23064AE  24196.75471715  .00000206  00000-0  25087-4 0  9996,2 56476  69.9983 204.7408 0003479 268.7978  91.2783 14.98330882 65422,6950.19,96.107,574.473,569.637,0.0
56476.0,STARLINK-5545,PAYLOAD,2024-07-15 05:19:44,14.98329986,0.0003491,69.9983,203.5624,268.4103,91.6656,3.2936e-05,3e-06,0.0,0 STARLINK-5545,1 56476U 23064AE  24197.22203754  .00000300  00000-0  32936-4 0  9991,2 56476  69.9983 203.5624 0003491 268.4103  91.6656 14.98329986 65853,6950.193,96.107,574.484,569.632,0.0
56476.0,STARLINK-5545,PAYLOAD,2024-07-15 10:08:08,14.98331347,0.0003488,69.9984,203.0575,268.6107,91.4652,3.5366e-05,3.29e-06,0.0,0 STARLINK-5545,1 56476U 23064AE  24197.42231658  .00000329  00000-0  35366-4 0  9998,2 56476  69.9984 203.0575 0003488 268.6107  91.4652 14.98331347 65528,6950.189,96.107,574.478,569.629,0.0
56476.0,STARLINK-5545,PAYLOAD,2024-07-15 18:08:48,14.98330872,0.000347,69.9984,202.2156,268.5631,91.513,2.5224e-05,2.08e-06,0.0,0 STARLINK-5545,1 56476U 23064AE  24197.75611721  .00000208  00000-0  25224-4 0  9995,2 56476  69.9984 202.2156 0003470 268.5631  91.5130 14.98330872 65575,6950.19,96.107,574.467,569.643,0.0
56476.0,STARLINK-5545,PAYLOAD,2024-07-16 05:21:44,14.98329429,0.0003488,69.9984,201.0373,268.4001,91.6758,4.1071e-05,3.97e-06,0.0,0 STARLINK-5545,1 56476U 23064AE  24198.22343737  .00000397  00000-0  41071-4 0  9994,2 56476  69.9984 201.0373 0003488 268.4001  91.6758 14.98329429 66004,6950.195,96.107,574.484,569.635,0.0
56476.0,STARLINK-5545,PAYLOAD,2024-07-16 10:10:09,14.98332176,0.000349,69.9984,200.5325,268.6772,91.3987,4.7886e-05,4.78e-06,0.0,0 STARLINK-5545,1 56476U 23064AE  24198.42371534  .00000478  00000-0  47886-4 0  9992,2 56476  69.9984 200.5325 0003490 268.6772  91.3987 14.98332176 65671,6950.186,96.107,574.477,569.626,0.0
56476.0,STARLINK-5545,PAYLOAD,2024-07-17 05:23:45,14.98329401,0.0003455,69.9986,198.5126,268.5826,91.4937,2.1095e-05,1.59e-06,0.0,0 STARLINK-5545,1 56476U 23064AE  24199.22483796  .00000159  00000-0  21095-4 0  9995,2 56476  69.9986 198.5126 0003455 268.5826  91.4937 14.98329401 66155,6950.195,96.107,574.461,569.658,0.0
56476.0,STARLINK-5545,PAYLOAD,2024-07-17 10:12:10,14.98331347,0.000343,69.9987,198.0076,268.5769,91.4998,4.4802e-05,4.42e-06,0.0,0 STARLINK-5545,1 56476U 23064AE  24199.42511605  .00000442  00000-0  44802-4 0  9994,2 56476  69.9987 198.0076 0003430 268.5769  91.4998 14.98331347 65826,6950.189,96.107,574.438,569.67,0.0
56476.0,STARLINK-5545,PAYLOAD,2024-07-18 05:25:46,14.98330945,0.0003376,69.9988,195.9877,268.8156,91.2616,3.1623e-05,2.84e-06,0.0,0 STARLINK-5545,1 56476U 23064AE  24200.22623733  .00000284  00000-0  31623-4 0  9992,2 56476  69.9988 195.9877 0003376 268.8156  91.2616 14.98330945 66306,6950.19,96.107,574.401,569.709,0.0
56476.0,STARLINK-5545,PAYLOAD,2024-07-18 10:14:10,14.98331775,0.0003314,69.999,195.4831,267.8686,92.2093,5.2272e-05,5.31e-06,0.0,0 STARLINK-5545,1 56476U 23064AE  24200.42651620  .00000531  00000-0  52272-4 0  9998,2 56476  69.9990 195.4831 0003314 267.8686  92.2093 14.98331775 65977,6950.187,96.107,574.356,569.749,0.0
56476.0,STARLINK-5545,PAYLOAD,2024-07-18 16:38:43,14.98331129,0.0003313,69.9991,194.8097,268.4051,91.6728,4.8383e-05,4.84e-06,0.0,0 STARLINK-5545,1 56476U 23064AE  24200.69355671  .00000484  00000-0  48383-4 0  9999,2 56476  69.9991 194.8097 0003313 268.4051  91.6728 14.98331129 66014,6950.189,96.107,574.357,569.752,0.0
56476.0,STARLINK-5545,PAYLOAD,2024-07-19 05:27:47,14.98331072,0.0003321,69.999,193.4632,267.6063,92.4716,4.4495e-05,4.38e-06,0.0,0 STARLINK-5545,1 56476U 23064AE  24201.22763668  .00000438  00000-0  44495-4 0  9997,2 56476  69.9990 193.4632 0003321 267.6063  92.4716 14.98331072 66457,6950.19,96.107,574.363,569.746,0.0
56476.0,STARLINK-5545,PAYLOAD,2024-07-19 08:40:03,14.98332558,0.0003299,69.9991,193.1267,267.2953,92.7828,6.0179e-05,6.25e-06,0.0,0 STARLINK-5545,1 56476U 23064AE  24201.36115521  .00000625  00000-0  60179-4 0  9996,2 56476  69.9991 193.1267 0003299 267.2953  92.7828 14.98332558 66117,6950.185,96.107,574.343,569.757,0.0
56476.0,STARLINK-5545,PAYLOAD,2024-07-19 16:40:44,14.98331363,0.0003294,69.9991,192.2849,268.566,91.5122,3.9334e-05,3.76e-06,0.0,0 STARLINK-5545,1 56476U 23064AE  24201.69495566  .00000376  00000-0  39334-4 0  9994,2 56476  69.9991 192.2849 0003294 268.5660  91.5122 14.98331363 66169,6950.189,96.107,574.343,569.764,0.0
56476.0,STARLINK-5545,PAYLOAD,2024-07-20 05:29:48,14.98328873,0.0003259,69.9991,190.9385,268.353,91.7255,1.7163e-05,1.12e-06,0.0,0 STARLINK-5545,1 56476U 23064AE  24202.22903790  .00000112  00000-0  17163-4 0  9991,2 56476  69.9991 190.9385 0003259 268.3530  91.7255 14.98328873 66604,6950.196,96.107,574.326,569.796,0.0
56476.0,STARLINK-5545,PAYLOAD,2024-07-20 08:42:04,14.98330525,0.0003233,69.9992,190.6018,268.4013,91.6776,3.6001e-05,3.37e-06,0.0,0 STARLINK-5545,1 56476U 23064AE  24202.36255632  .00000337  00000-0  36001-4 0  9992,2 56476  69.9992 190.6018 0003233 268.4013  91.6776 14.98330525 66260,6950.191,96.107,574.303,569.809,0.0
56476.0,STARLINK-5545,PAYLOAD,2024-07-20 16:42:45,14.98330753,0.0003248,69.9991,189.7597,270.2962,89.7825,2.3845e-05,1.91e-06,0.0,0 STARLINK-5545,1 56476U 23064AE  24202.69635671  .00000191  00000-0  23845-4 0  9993,2 56476  69.9991 189.7597 0003248 270.2962  89.7825 14.98330753 66312,6950.191,96.107,574.313,569.798,0.0
56476.0,STARLINK-5545,PAYLOAD,2024-07-21 05:31:51,14.98312679,0.0003164,69.9992,188.4131,267.5852,92.4945,-0.00015668,-1.961e-05,0.0,0 STARLINK-5545,1 56476U 23064AE  24203.23045336 -.00001961  00000-0 -15668-3 0  9998,2 56476  69.9992 188.4131 0003164 267.5852  92.4945 14.98312679 66756,6950.246,96.108,574.311,569.912,0.0
